start=new Date('2022-07-05T00:00:00.000Z').valueOf();
sats=[{"MEAN_MOTION":"15.06396044","TLE_LINE1":"1 48465U 21040AP  22185.92343978 -.00000895  00000-0 -41224-4 0  9998","OBJECT_ID":"2021-040AP","REF_FRAME":"TEME","SITE":"AFETR","ECCENTRICITY":"0.00015580","PERIAPSIS":"546.147","RA_OF_ASC_NODE":"104.0232","TIME_SYSTEM":"UTC","INCLINATION":"53.0542","APOAPSIS":"548.305","RCS_SIZE":"LARGE","ARG_OF_PERICENTER":"73.0493","DECAY_DATE":null,"NORAD_CAT_ID":"48465","LAUNCH_DATE":"2021-05-09","CLASSIFICATION_TYPE":"U","TLE_LINE2":"2 48465  53.0542 104.0232 0001558  73.0493 287.0666 15.06396044 63962","PERIOD":"95.592","BSTAR":"-0.00004122400000","ELEMENT_SET_NO":"999","FILE":"3507746","MEAN_MOTION_DOT":"-0.00000895","COUNTRY_CODE":"US","OBJECT_NAME":"STARLINK-2681","SEMIMAJOR_AXIS":"6925.361","MEAN_ANOMALY":"287.0666","REV_AT_EPOCH":"6396","EPOCH":"2022-07-04T22:09:45.196992","EPHEMERIS_TYPE":"0","GP_ID":"207417638","MEAN_MOTION_DDOT":"0.0000000000000","CENTER_NAME":"EARTH","OBJECT_TYPE":"PAYLOAD","MEAN_ELEMENT_THEORY":"SGP4"},{"OBJECT_TYPE":"PAYLOAD","MEAN_ELEMENT_THEORY":"SGP4","CENTER_NAME":"EARTH","MEAN_MOTION_DDOT":"0.0000000000000","EPHEMERIS_TYPE":"0","GP_ID":"207416399","EPOCH":"2022-07-04T18:37:27.183648","OBJECT_NAME":"STARLINK-2687","SEMIMAJOR_AXIS":"6925.392","MEAN_ANOMALY":"296.2803","REV_AT_EPOCH":"6394","MEAN_MOTION_DOT":"-0.00001805","FILE":"3507746","COUNTRY_CODE":"US","LAUNCH_DATE":"2021-05-09","TLE_LINE2":"2 48466  53.0532 104.6872 0001806  63.8372 296.2803 15.06385865 63949","BSTAR":"-0.00010235000000","PERIOD":"95.593","CLASSIFICATION_TYPE":"U","ELEMENT_SET_NO":"999","NORAD_CAT_ID":"48466","DECAY_DATE":null,"INCLINATION":"53.0532","APOAPSIS":"548.508","RCS_SIZE":"LARGE","ARG_OF_PERICENTER":"63.8372","PERIAPSIS":"546.006","RA_OF_ASC_NODE":"104.6872","TIME_SYSTEM":"UTC","ECCENTRICITY":"0.00018060","REF_FRAME":"TEME","SITE":"AFETR","MEAN_MOTION":"15.06385865","TLE_LINE1":"1 48466U 21040AQ  22185.77600907 -.00001805  00000-0 -10235-3 0  9999","OBJECT_ID":"2021-040AQ"},{"EPOCH":"2022-07-04T22:25:41.527488","OBJECT_NAME":"STARLINK-2659","SEMIMAJOR_AXIS":"6925.393","MEAN_ANOMALY":"292.4094","REV_AT_EPOCH":"6396","MEAN_MOTION_DOT":"-0.00002721","FILE":"3507746","COUNTRY_CODE":"US","LAUNCH_DATE":"2021-05-09","TLE_LINE2":"2 48467  53.0549 103.9767 0001682  67.7073 292.4094 15.06385506 63960","CLASSIFICATION_TYPE":"U","PERIOD":"95.593","BSTAR":"-0.00016389000000","ELEMENT_SET_NO":"999","OBJECT_TYPE":"PAYLOAD","MEAN_ELEMENT_THEORY":"SGP4","CENTER_NAME":"EARTH","MEAN_MOTION_DDOT":"0.0000000000000","EPHEMERIS_TYPE":"0","GP_ID":"207416149","ECCENTRICITY":"0.00016820","REF_FRAME":"TEME","SITE":"AFETR","MEAN_MOTION":"15.06385506","OBJECT_ID":"2021-040AR","TLE_LINE1":"1 48467U 21040AR  22185.93450842 -.00002721  00000-0 -16389-3 0  9993","NORAD_CAT_ID":"48467","DECAY_DATE":null,"INCLINATION":"53.0549","APOAPSIS":"548.423","RCS_SIZE":"LARGE","ARG_OF_PERICENTER":"67.7073","RA_OF_ASC_NODE":"103.9767","PERIAPSIS":"546.093","TIME_SYSTEM":"UTC"},{"MEAN_MOTION_DOT":"-0.00000443","FILE":"3507746","COUNTRY_CODE":"US","CLASSIFICATION_TYPE":"U","TLE_LINE2":"2 48468  53.0573 104.0654 0001974  63.8234 296.2958 15.06400208 63963","PERIOD":"95.592","BSTAR":"-0.00001082300000","ELEMENT_SET_NO":"999","LAUNCH_DATE":"2021-05-09","EPOCH":"2022-07-04T21:59:08.009088","MEAN_ANOMALY":"296.2958","REV_AT_EPOCH":"6396","OBJECT_NAME":"STARLINK-2685","SEMIMAJOR_AXIS":"6925.348","MEAN_MOTION_DDOT":"0.0000000000000","GP_ID":"207416897","EPHEMERIS_TYPE":"0","MEAN_ELEMENT_THEORY":"SGP4","OBJECT_TYPE":"PAYLOAD","CENTER_NAME":"EARTH","SITE":"AFETR","REF_FRAME":"TEME","TLE_LINE1":"1 48468U 21040AS  22185.91606492 -.00000443  00000-0 -10823-4 0  9993","OBJECT_ID":"2021-040AS","MEAN_MOTION":"15.06400208","ECCENTRICITY":"0.00019740","RCS_SIZE":"LARGE","ARG_OF_PERICENTER":"63.8234","APOAPSIS":"548.580","INCLINATION":"53.0573","TIME_SYSTEM":"UTC","RA_OF_ASC_NODE":"104.0654","PERIAPSIS":"545.846","NORAD_CAT_ID":"48468","DECAY_DATE":null},{"EPOCH":"2022-07-04T22:20:21.959808","REV_AT_EPOCH":"6396","MEAN_ANOMALY":"274.2810","SEMIMAJOR_AXIS":"6925.363","OBJECT_NAME":"STARLINK-2661","COUNTRY_CODE":"US","FILE":"3507746","MEAN_MOTION_DOT":"-0.00001007","ELEMENT_SET_NO":"999","BSTAR":"-0.00004870900000","TLE_LINE2":"2 48469  53.0543 103.9901 0001397  85.8338 274.2810 15.06395347 63962","PERIOD":"95.592","CLASSIFICATION_TYPE":"U","LAUNCH_DATE":"2021-05-09","MEAN_ELEMENT_THEORY":"SGP4","OBJECT_TYPE":"PAYLOAD","CENTER_NAME":"EARTH","MEAN_MOTION_DDOT":"0.0000000000000","GP_ID":"207417139","EPHEMERIS_TYPE":"0","ECCENTRICITY":"0.00013970","SITE":"AFETR","REF_FRAME":"TEME","OBJECT_ID":"2021-040AT","TLE_LINE1":"1 48469U 21040AT  22185.93080972 -.00001007  00000-0 -48709-4 0  9996","MEAN_MOTION":"15.06395347","NORAD_CAT_ID":"48469","DECAY_DATE":null,"APOAPSIS":"548.195","RCS_SIZE":"LARGE","ARG_OF_PERICENTER":"85.8338","INCLINATION":"53.0543","TIME_SYSTEM":"UTC","RA_OF_ASC_NODE":"103.9901","PERIAPSIS":"546.260"},{"ECCENTRICITY":"0.00020800","MEAN_MOTION":"15.06392556","TLE_LINE1":"1 48470U 21040AU  22185.92618562 -.00002235  00000-0 -13119-3 0  9999","OBJECT_ID":"2021-040AU","REF_FRAME":"TEME","SITE":"AFETR","DECAY_DATE":null,"NORAD_CAT_ID":"48470","RA_OF_ASC_NODE":"104.0002","PERIAPSIS":"545.796","TIME_SYSTEM":"UTC","INCLINATION":"53.0550","RCS_SIZE":"LARGE","APOAPSIS":"548.677","ARG_OF_PERICENTER":"60.3893","SEMIMAJOR_AXIS":"6925.371","OBJECT_NAME":"STARLINK-2675","REV_AT_EPOCH":"6395","MEAN_ANOMALY":"299.7303","EPOCH":"2022-07-04T22:13:42.437568","LAUNCH_DATE":"2021-05-09","ELEMENT_SET_NO":"999","TLE_LINE2":"2 48470  53.0550 104.0002 0002080  60.3893 299.7303 15.06392556 63957","PERIOD":"95.593","CLASSIFICATION_TYPE":"U","BSTAR":"-0.00013119000000","COUNTRY_CODE":"US","FILE":"3507746","MEAN_MOTION_DOT":"-0.00002235","CENTER_NAME":"EARTH","OBJECT_TYPE":"PAYLOAD","MEAN_ELEMENT_THEORY":"SGP4","EPHEMERIS_TYPE":"0","GP_ID":"207415900","MEAN_MOTION_DDOT":"0.0000000000000"},{"NORAD_CAT_ID":"48471","DECAY_DATE":null,"RCS_SIZE":"LARGE","ARG_OF_PERICENTER":"66.1280","APOAPSIS":"548.837","INCLINATION":"53.0552","TIME_SYSTEM":"UTC","PERIAPSIS":"545.615","RA_OF_ASC_NODE":"104.0352","ECCENTRICITY":"0.00023260","SITE":"AFETR","REF_FRAME":"TEME","TLE_LINE1":"1 48471U 21040AV  22185.91975373 -.00001216  00000-0 -62703-4 0  9997","OBJECT_ID":"2021-040AV","MEAN_MOTION":"15.06396014","MEAN_ELEMENT_THEORY":"SGP4","OBJECT_TYPE":"PAYLOAD","CENTER_NAME":"EARTH","MEAN_MOTION_DDOT":"0.0000000000000","GP_ID":"207416649","EPHEMERIS_TYPE":"0","EPOCH":"2022-07-04T22:04:26.722272","REV_AT_EPOCH":"6395","MEAN_ANOMALY":"293.9953","SEMIMAJOR_AXIS":"6925.361","OBJECT_NAME":"STARLINK-2684","COUNTRY_CODE":"US","MEAN_MOTION_DOT":"-0.00001216","FILE":"3507746","ELEMENT_SET_NO":"999","BSTAR":"-0.00006270300000","TLE_LINE2":"2 48471  53.0552 104.0352 0002326  66.1280 293.9953 15.06396014 63955","PERIOD":"95.592","CLASSIFICATION_TYPE":"U","LAUNCH_DATE":"2021-05-09"},{"MEAN_MOTION":"15.06381979","OBJECT_ID":"2021-040AW","TLE_LINE1":"1 48472U 21040AW  22185.50325033 -.00000788  00000-0 -34012-4 0  9990","REF_FRAME":"TEME","SITE":"AFETR","ECCENTRICITY":"0.00019820","RA_OF_ASC_NODE":"105.9152","PERIAPSIS":"545.896","TIME_SYSTEM":"UTC","INCLINATION":"53.0560","RCS_SIZE":"LARGE","ARG_OF_PERICENTER":"68.1453","APOAPSIS":"548.641","DECAY_DATE":null,"NORAD_CAT_ID":"48472","LAUNCH_DATE":"2021-05-09","TLE_LINE2":"2 48472  53.0560 105.9152 0001982  68.1453 291.9747 15.06381979 63889","CLASSIFICATION_TYPE":"U","PERIOD":"95.593","BSTAR":"-0.00003401200000","ELEMENT_SET_NO":"999","FILE":"3507601","MEAN_MOTION_DOT":"-0.00000788","COUNTRY_CODE":"US","OBJECT_NAME":"STARLINK-2722","SEMIMAJOR_AXIS":"6925.404","MEAN_ANOMALY":"291.9747","REV_AT_EPOCH":"6388","EPOCH":"2022-07-04T12:04:40.828512","EPHEMERIS_TYPE":"0","GP_ID":"207388410","MEAN_MOTION_DDOT":"0.0000000000000","CENTER_NAME":"EARTH","OBJECT_TYPE":"PAYLOAD","MEAN_ELEMENT_THEORY":"SGP4"},{"OBJECT_TYPE":"PAYLOAD","MEAN_ELEMENT_THEORY":"SGP4","CENTER_NAME":"EARTH","MEAN_MOTION_DDOT":"0.0000000000000","EPHEMERIS_TYPE":"0","GP_ID":"207417639","EPOCH":"2022-07-04T22:30:59.971968","OBJECT_NAME":"STARLINK-2658","SEMIMAJOR_AXIS":"6925.394","MEAN_ANOMALY":"294.9176","REV_AT_EPOCH":"6395","FILE":"3507746","MEAN_MOTION_DOT":"-0.00001372","COUNTRY_CODE":"US","LAUNCH_DATE":"2021-05-09","TLE_LINE2":"2 48473  53.0541 103.9479 0002886  65.2113 294.9176 15.06385082 63950","CLASSIFICATION_TYPE":"U","PERIOD":"95.593","BSTAR":"-0.00007321600000","ELEMENT_SET_NO":"999","NORAD_CAT_ID":"48473","DECAY_DATE":null,"INCLINATION":"53.0541","ARG_OF_PERICENTER":"65.2113","RCS_SIZE":"LARGE","APOAPSIS":"549.258","RA_OF_ASC_NODE":"103.9479","PERIAPSIS":"545.261","TIME_SYSTEM":"UTC","ECCENTRICITY":"0.00028860","REF_FRAME":"TEME","SITE":"AFETR","MEAN_MOTION":"15.06385082","TLE_LINE1":"1 48473U 21040AX  22185.93819412 -.00001372  00000-0 -73216-4 0  9996","OBJECT_ID":"2021-040AX"},{"CENTER_NAME":"EARTH","OBJECT_TYPE":"PAYLOAD","MEAN_ELEMENT_THEORY":"SGP4","EPHEMERIS_TYPE":"0","GP_ID":"207416400","MEAN_MOTION_DDOT":"0.0000000000000","OBJECT_NAME":"STARLINK-2697","SEMIMAJOR_AXIS":"6925.395","MEAN_ANOMALY":"287.0198","REV_AT_EPOCH":"6392","EPOCH":"2022-07-04T18:32:09.176352","LAUNCH_DATE":"2021-05-09","TLE_LINE2":"2 48474  53.0571 104.7049 0001307  73.0935 287.0198 15.06384855 63923","PERIOD":"95.593","BSTAR":"-0.00019919000000","CLASSIFICATION_TYPE":"U","ELEMENT_SET_NO":"999","FILE":"3507746","MEAN_MOTION_DOT":"-0.00003246","COUNTRY_CODE":"US","DECAY_DATE":null,"NORAD_CAT_ID":"48474","PERIAPSIS":"546.355","RA_OF_ASC_NODE":"104.7049","TIME_SYSTEM":"UTC","INCLINATION":"53.0571","ARG_OF_PERICENTER":"73.0935","RCS_SIZE":"LARGE","APOAPSIS":"548.165","ECCENTRICITY":"0.00013070","MEAN_MOTION":"15.06384855","TLE_LINE1":"1 48474U 21040AY  22185.77232843 -.00003246  00000-0 -19919-3 0  9997","OBJECT_ID":"2021-040AY","REF_FRAME":"TEME","SITE":"AFETR"}];
